LEMUR-2-LAILA           
1 66776U 25276DQ  26160.72223947  .00005178  00000+0  23529-3 0  9999
2 66776  97.4175 234.7208 0001729 145.5438 214.5911 15.21189710 29315
LEMUR-2-CELIJO-SB-PK    
1 66781U 25276DW  26160.69830934  .00005514  00000+0  44895-3 0  9994
2 66781  97.5278 231.7208 0008885 150.4247 209.7481 14.99882492 21508
LEMUR-2-FINNIAN         
1 66782U 25276DX  26160.74397694  .00006345  00000+0  51051-3 0  9997
2 66782  97.5264 231.9733 0008658 111.1531 249.0619 15.00283316 18887
LEMUR-2-STARLIGHT       
1 66783U 25276DY  26159.15835773  .00005428  00000+0  45216-3 0  9993
2 66783  97.5274 230.1048 0015352 153.7795 206.4209 14.98948334 28845
LEMUR-2-TARTIFLETTE     
1 66784U 25276DZ  26160.69234224  .00006176  00000+0  51340-3 0  9995
2 66784  97.5280 231.5921 0013983 155.3220 204.8675 14.98991968 29073
LEMUR-2-VUKASIN         
1 66785U 25276EA  26160.69246503  .00005702  00000+0  45942-3 0  9994
2 66785  97.5310 231.8707 0006283 141.8007 218.3664 15.00284814 29023
LEMUR-2-HOTSPUR-TOM     
1 66786U 25276EB  26160.15025508  .00006265  00000+0  52223-3 0  9991
2 66786  97.5255 231.0522 0015359 152.0796 208.1254 14.98860681 28920
LEMUR-2-MYRA            
1 66787U 25276EC  26160.72326175  .00006333  00000+0  51052-3 0  9994
2 66787  97.5220 231.8501 0015696 166.2710 193.8944 15.00142813 29094
LEMUR-2 FIKRETDENGIZ    
1 67363U 26004A   26160.73877678  .00003937  00000+0  43165-3 0  9998
2 67363  97.8013 159.4116 0009512 154.6059 205.5627 14.88271434 22170
TWILIGHT-1 OBJECT B     
1 67364U 26004B   26160.22210465  .00001749  00000+0  19791-3 0  9995
2 67364  97.8059 158.9215 0009444 147.3595 212.8206 14.87675373 22109
LEMUR-2-MARIO-SOUSA     
1 67365U 26004C   26160.72332401  .00003867  00000+0  42217-3 0  9998
2 67365  97.7989 159.3928 0009050 155.2740 204.8913 14.88453595 22185
LEMUR-2-SONNENBLUME     
1 67367U 26004E   26160.72077509  .00002335  00000+0  25844-3 0  9991
2 67367  97.7983 159.3777 0008561 156.9651 203.1951 14.88277541 22187
LEMUR-2-WOBLER          
1 67368U 26004F   26160.71524062  .00003220  00000+0  35245-3 0  9992
2 67368  97.8037 159.4870 0008986 146.8154 213.3628 14.88466175 22188
LEMUR-2-GRAM-E-SUE      
1 67370U 26004H   26160.50402255  .00001894  00000+0  20997-3 0  9994
2 67370  97.7972 159.1789 0007608 157.9023 202.2523 14.88437411 22151
LEMUR-2-KATIE           
1 67387U 26004AA  26160.23076940  .00003710  00000+0  39038-3 0  9995
2 67387  97.8037 159.3436 0004739 109.1895 250.9836 14.89999040 22127
LEMUR-2-HCS-BAZUS       
1 67388U 26004AB  26160.49850342  .00004193  00000+0  44038-3 0  9992
2 67388  97.8024 159.5900 0004340 104.3095 255.8605 14.89999049 22160
