OBJECT_NAME,OBJECT_ID,EPOCH,MEAN_MOTION,ECCENTRICITY,INCLINATION,RA_OF_ASC_NODE,ARG_OF_PERICENTER,MEAN_ANOMALY,EPHEMERIS_TYPE,CLASSIFICATION_TYPE,NORAD_CAT_ID,ELEMENT_SET_NO,REV_AT_EPOCH,BSTAR,MEAN_MOTION_DOT,MEAN_MOTION_DDOT
LEMUR-2-LAILA,2025-276DQ,2026-06-09T17:20:01.490208,15.21189710,.00017292,97.4175,234.7208,145.5438,214.5911,0,U,66776,999,2931,.23528968E-3,.5178E-4,0
LEMUR-2-CELIJO-SB-PK,2025-276DW,2026-06-09T16:45:33.926976,14.99882492,.0008885,97.5278,231.7208,150.4247,209.7481,0,U,66781,999,2150,.44895498E-3,.5514E-4,0
LEMUR-2-FINNIAN,2025-276DX,2026-06-09T17:51:19.607616,15.00283316,.00086581,97.5264,231.9733,111.1531,249.0619,0,U,66782,999,1888,.51050776E-3,.6345E-4,0
LEMUR-2-STARLIGHT,2025-276DY,2026-06-08T03:48:02.107872,14.98948334,.00153528,97.5274,230.1048,153.7795,206.4209,0,U,66783,999,2884,.45215688E-3,.5428E-4,0
LEMUR-2-TARTIFLETTE,2025-276DZ,2026-06-09T16:36:58.369536,14.98991968,.00139838,97.5280,231.5921,155.3220,204.8675,0,U,66784,999,2907,.51339631E-3,.6176E-4,0
LEMUR-2-VUKASIN,2025-276EA,2026-06-09T16:37:08.978592,15.00284814,.00062834,97.5310,231.8707,141.8007,218.3664,0,U,66785,999,2902,.45941833E-3,.5702E-4,0
LEMUR-2-HOTSPUR-TOM,2025-276EB,2026-06-09T03:36:22.038912,14.98860681,.00153592,97.5255,231.0522,152.0796,208.1254,0,U,66786,999,2892,.52222614E-3,.6265E-4,0
LEMUR-2-MYRA,2025-276EC,2026-06-09T17:21:29.815200,15.00142813,.00156968,97.5220,231.8501,166.2710,193.8944,0,U,66787,999,2909,.5105227E-3,.6333E-4,0
LEMUR-2 FIKRETDENGIZ,2026-004A,2026-06-09T17:43:50.313792,14.88271434,.00095128,97.8013,159.4116,154.6059,205.5627,0,U,67363,999,2217,.43165155E-3,.3937E-4,0
TWILIGHT-1 OBJECT B,2026-004B,2026-06-09T05:19:49.841760,14.87675373,.0009444,97.8059,158.9215,147.3595,212.8206,0,U,67364,999,2210,.19791E-3,.1749E-4,0
LEMUR-2-MARIO-SOUSA,2026-004C,2026-06-09T17:21:35.194464,14.88453595,.00090501,97.7989,159.3928,155.2740,204.8913,0,U,67365,999,2218,.422172E-3,.3867E-4,0
LEMUR-2-SONNENBLUME,2026-004E,2026-06-09T17:17:54.967776,14.88277541,.00085614,97.7983,159.3777,156.9651,203.1951,0,U,67367,999,2218,.25844419E-3,.2335E-4,0
LEMUR-2-WOBLER,2026-004F,2026-06-09T17:09:56.789568,14.88466175,.00089869,97.8037,159.4870,146.8154,213.3628,0,U,67368,999,2218,.35244589E-3,.322E-4,0
LEMUR-2-GRAM-E-SUE,2026-004H,2026-06-09T12:05:47.548320,14.88437411,.00076089,97.7972,159.1789,157.9023,202.2523,0,U,67370,999,2215,.20996798E-3,.1894E-4,0
LEMUR-2-KATIE,2026-004AA,2026-06-09T05:32:18.476160,14.89999040,.0004739,97.8037,159.3436,109.1895,250.9836,0,U,67387,999,2212,.39038E-3,.371E-4,0
LEMUR-2-HCS-BAZUS,2026-004AB,2026-06-09T11:57:50.695488,14.89999049,.00043409,97.8024,159.5900,104.3095,255.8605,0,U,67388,999,2216,.44037528E-3,.4193E-4,0
